OBJECT_NAME,OBJECT_ID,EPOCH,MEAN_MOTION,ECCENTRICITY,INCLINATION,RA_OF_ASC_NODE,ARG_OF_PERICENTER,MEAN_ANOMALY,EPHEMERIS_TYPE,CLASSIFICATION_TYPE,NORAD_CAT_ID,ELEMENT_SET_NO,REV_AT_EPOCH,BSTAR,MEAN_MOTION_DOT,MEAN_MOTION_DDOT
STARS (KUKAI),2009-002G,2026-06-09T02:59:00.301056,14.95691900,.0008214,98.1538,107.1039,185.3722,174.7411,0,U,33498,999,93727,.3047E-3,.333E-4,0
KKS-1 (KISEKI),2009-002H,2026-06-09T03:51:16.436160,14.83103187,.0007012,98.1193,82.4758,326.0486,34.0277,0,U,33499,999,93500,.16104E-3,.1256E-4,0
UK-DMC 2,2009-041C,2026-06-08T21:18:06.143904,14.76019080,.0001296,97.8828,295.0575,72.8745,287.2607,0,U,35683,999,90534,.16742E-3,.1104E-4,0
OCEANSAT-2,2009-051A,2026-06-09T04:38:07.365120,13.99664241,.001468,98.2324,147.8420,260.5091,99.4416,0,U,35931,999,87821,.81152E-4,.81E-6,0
SWISSCUBE,2009-051B,2026-06-08T00:00:58.440960,14.62465103,.00054748,98.4042,66.7288,236.3791,123.6888,0,U,35932,999,88781,.23775073E-3,.1155E-4,0
BEESAT-1,2009-051C,2026-06-09T04:03:26.129088,14.61707455,.000391,98.3972,67.5698,248.9376,111.1406,0,U,35933,999,88801,.15973E-3,.747E-5,0
ITUPSAT1,2009-051E,2026-06-07T23:43:00.084288,14.60427678,.00060745,98.4056,65.5723,268.4530,91.5974,0,U,35935,999,88739,.1903704E-3,.873E-5,0
DMSP 5D-3 F18 (USA 210),2009-057A,2026-06-09T03:36:13.652064,14.14892189,.0009867,98.9034,140.9369,275.2032,84.8015,0,U,35951,999,85845,.14528E-3,.236E-5,0
PROBA-2,2009-059B,2026-06-09T02:59:55.762080,14.54858914,.0012219,98.2451,343.5897,309.4976,50.5140,0,U,36037,999,88035,.49869E-4,.169E-5,0
YAOGAN-7,2009-069A,2026-06-09T02:24:19.950624,14.78001463,.0025939,98.0083,46.0170,66.6861,293.7075,0,U,36110,999,88843,.66832E-4,.432E-5,0
XIWANG-1 (HOPE-1),2009-072B,2026-06-09T04:30:41.056416,13.16438193,.0006806,100.4025,114.1480,252.0123,108.0249,0,U,36122,999,79195,-.61562E-3,-.28E-5,0
COSMOS 2463,2010-017A,2026-06-09T01:03:05.273856,13.71665223,.0036932,82.9608,255.6884,150.8619,26.5360,0,U,36519,999,80681,.31896E-4,.44E-6,0
CARTOSAT-2B,2010-035A,2026-06-09T03:38:18.856896,14.78650426,.0010538,97.9955,210.7524,211.2021,148.8565,0,U,36795,999,85866,.59513E-4,.384E-5,0
TISAT 1,2010-035E,2026-06-08T19:40:13.695744,15.31390446,.0000185,98.0700,105.6282,170.3248,189.7995,0,U,36799,999,86642,.66607E-3,.20138E-3,0
YAOGAN-10,2010-038A,2026-06-09T04:51:17.157888,14.85323736,.0001666,97.8983,183.6705,88.9165,345.0327,0,U,36834,999,85602,.1268E-3,.1036E-4,0
SHIJIAN-6 04B (SJ-6 04B),2010-051B,2026-06-09T03:32:47.619168,14.99296256,.0009117,97.8686,165.4762,339.6633,20.4225,0,U,37180,999,85447,.86456E-4,.995E-5,0
FENGYUN 3B,2010-059A,2026-06-09T05:52:44.059296,14.14840189,.0021469,98.9623,206.2256,206.9006,230.0460,0,U,37214,999,80630,.4431E-4,.4E-6,0
COSMO-SKYMED 4,2010-060A,2026-06-08T09:32:08.023776,14.82162251,.00014135,97.8890,343.1246,83.8256,276.3118,0,U,37216,999,84326,.70656283E-4,.51E-5,0
O/OREOS (USA 219),2010-062C,2026-06-09T02:13:32.552832,14.93709289,.0012381,71.9703,98.6734,80.7917,279.4653,0,U,37224,999,11543,.20169E-3,.2075E-4,0
RESOURCESAT-2,2011-015A,2026-06-09T03:15:30.419136,14.21604699,.0010136,98.7644,227.6329,281.5196,78.4843,0,U,37387,999,78503,.43609E-4,.51E-6,0
YOUTHSAT,2011-015B,2026-06-08T20:58:53.714784,14.25626951,.0014749,98.3677,134.3033,11.5342,47.8689,0,U,37388,999,78645,.98352E-4,.192E-5,0
APRIZESAT 6,2011-044F,2026-06-09T00:13:18.925248,14.76903526,.0044354,98.2372,70.3418,111.4244,269.4678,0,U,37793,999,79594,.95913E-4,.629E-5,0
JUGNU,2011-058B,2026-06-08T21:25:31.427040,14.13774614,.0018531,19.9622,358.8183,344.9101,52.3986,0,U,37839,999,75785,.79653E-4,.42E-5,0
SRMSAT,2011-058D,2026-06-09T03:43:58.154880,14.11573862,.0011941,19.9710,108.0810,115.7185,272.7432,0,U,37841,999,75668,.51544E-4,.36E-5,0
SUOMI NPP,2011-061A,2026-06-09T03:56:23.059392,14.19515711,.0001974,98.7953,101.0951,24.6640,335.4630,0,U,37849,999,75730,.5058E-4,.62E-6,0
YAOGAN-12,2011-066B,2026-06-09T04:52:34.838400,15.26501898,.0008098,97.1149,199.1471,250.0159,110.0209,0,U,37875,999,81082,.19136E-3,.493E-4,0
