STARS (KUKAI)           
1 33498U 09002G   26160.12430904  .00003330  00000+0  30470-3 0  9991
2 33498  98.1538 107.1039 0008214 185.3722 174.7411 14.95691900937274
KKS-1 (KISEKI)          
1 33499U 09002H   26160.16060690  .00001256  00000+0  16104-3 0  9990
2 33499  98.1193  82.4758 0007012 326.0486  34.0277 14.83103187935000
UK-DMC 2                
1 35683U 09041C   26159.88757111  .00001104  00000+0  16742-3 0  9998
2 35683  97.8828 295.0575 0001296  72.8745 287.2607 14.76019080905342
OCEANSAT-2              
1 35931U 09051A   26160.19314080  .00000081  00000+0  81152-4 0  9996
2 35931  98.2324 147.8420 0014680 260.5091  99.4416 13.99664241878213
SWISSCUBE               
1 35932U 09051B   26159.00067640  .00001155  00000+0  23775-3 0  9991
2 35932  98.4042  66.7288 0005474 236.3791 123.6888 14.62465103887819
BEESAT-1                
1 35933U 09051C   26160.16905242  .00000747  00000+0  15973-3 0  9997
2 35933  98.3972  67.5698 0003910 248.9376 111.1406 14.61707455888015
ITUPSAT1                
1 35935U 09051E   26158.98819542  .00000873  00000+0  19037-3 0  9998
2 35935  98.4056  65.5723 0006074 268.4530  91.5974 14.60427678887397
DMSP 5D-3 F18 (USA 210) 
1 35951U 09057A   26160.15015801  .00000236  00000+0  14528-3 0  9993
2 35951  98.9034 140.9369 0009867 275.2032  84.8015 14.14892189858454
PROBA-2                 
1 36037U 09059B   26160.12495095  .00000169  00000+0  49869-4 0  9997
2 36037  98.2451 343.5897 0012219 309.4976  50.5140 14.54858914880350
YAOGAN-7                
1 36110U 09069A   26160.10023091  .00000432  00000+0  66832-4 0  9993
2 36110  98.0083  46.0170 0025939  66.6861 293.7075 14.78001463888438
XIWANG-1 (HOPE-1)       
1 36122U 09072B   26160.18797519 -.00000280  00000+0 -61562-3 0  9998
2 36122 100.4025 114.1480 0006806 252.0123 108.0249 13.16438193791956
COSMOS 2463             
1 36519U 10017A   26160.04381104  .00000044  00000+0  31896-4 0  9997
2 36519  82.9608 255.6884 0036932 150.8619  26.5360 13.71665223806811
CARTOSAT-2B             
1 36795U 10035A   26160.15160714  .00000384  00000+0  59513-4 0  9990
2 36795  97.9955 210.7524 0010538 211.2021 148.8565 14.78650426858666
TISAT 1                 
1 36799U 10035E   26159.81960296  .00020138  00000+0  66607-3 0  9998
2 36799  98.0700 105.6282 0000185 170.3248 189.7995 15.31390446866423
YAOGAN-10               
1 36834U 10038A   26160.20228192  .00001036  00000+0  12680-3 0  9996
2 36834  97.8983 183.6705 0001666  88.9165 345.0327 14.85323736856023
SHIJIAN-6 04B (SJ-6 04B)
1 37180U 10051B   26160.14777337  .00000995  00000+0  86456-4 0  9995
2 37180  97.8686 165.4762 0009117 339.6633  20.4225 14.99296256854473
FENGYUN 3B              
1 37214U 10059A   26160.24495439  .00000040  00000+0  44310-4 0  9996
2 37214  98.9623 206.2256 0021469 206.9006 230.0460 14.14840189806306
COSMO-SKYMED 4          
1 37216U 10060A   26159.39731509  .00000510  00000+0  70656-4 0  9999
2 37216  97.8890 343.1246 0001413  83.8256 276.3118 14.82162251843269
O/OREOS (USA 219)       
1 37224U 10062C   26160.09273788  .00002075  00000+0  20169-3 0  9990
2 37224  71.9703  98.6734 0012381  80.7917 279.4653 14.93709289115433
RESOURCESAT-2           
1 37387U 11015A   26160.13576874  .00000051  00000+0  43609-4 0  9993
2 37387  98.7644 227.6329 0010136 281.5196  78.4843 14.21604699785031
YOUTHSAT                
1 37388U 11015B   26159.87423281  .00000192  00000+0  98352-4 0  9997
2 37388  98.3677 134.3033 0014749  11.5342  47.8689 14.25626951786452
APRIZESAT 6             
1 37793U 11044F   26160.00924682  .00000629  00000+0  95913-4 0  9992
2 37793  98.2372  70.3418 0044354 111.4244 269.4678 14.76903526795941
JUGNU                   
1 37839U 11058B   26159.89272485  .00000420  00000+0  79653-4 0  9992
2 37839  19.9622 358.8183 0018531 344.9101  52.3986 14.13774614757850
SRMSAT                  
1 37841U 11058D   26160.15553420  .00000360  00000+0  51544-4 0  9999
2 37841  19.9710 108.0810 0011941 115.7185 272.7432 14.11573862756681
SUOMI NPP               
1 37849U 11061A   26160.16415578  .00000062  00000+0  50580-4 0  9991
2 37849  98.7953 101.0951 0001974  24.6640 335.4630 14.19515711757305
YAOGAN-12               
1 37875U 11066B   26160.20318100  .00004930  00000+0  19136-3 0  9992
2 37875  97.1149 199.1471 0008098 250.0159 110.0209 15.26501898810829
